STARLINK-37066          
1 68081U 26042N   26093.20089600  .00101408  00000+0  65687-3 0  9990
2 68081  53.1596  72.3855 0001113  53.7875 306.3248 15.75271319  5951
STARLINK-37054          
1 68082U 26042P   26093.58336806  .00059566  00000+0  39070-3 0  9999
2 68082  53.1597  69.9567 0001107 106.3972 161.3486 15.75198650  6052
STARLINK-37065          
1 68083U 26042Q   26093.20543696  .00476885  00000+0  29407-2 0  9995
2 68083  53.1591  72.4150 0001397 115.5889 244.5276 15.75257468  5956
STARLINK-37037          
1 68084U 26042R   26093.63142918  .00455799  00000+0  28064-2 0  9994
2 68084  53.1582  70.0871 0001560  62.5545 297.5634 15.75352224  6024
STARLINK-37068          
1 68085U 26042S   26093.36434289  .00187440  00000+0  11995-2 0  9990
2 68085  53.1592  71.2590 0001504  64.0072 296.1103 15.75248196  5989
STARLINK-37067          
1 68086U 26042T   26093.58336806  .00153888  00000+0  99413-3 0  9992
2 68086  53.1597  69.9604 0000859  94.8675 170.9799 15.75140886  6053
STARLINK-37062          
1 68087U 26042U   26093.58336806  .00137496  00000+0  88958-3 0  9992
2 68087  53.1594  70.0097 0000848  79.0061 162.9472 15.75162071  6051
STARLINK-37059          
1 68088U 26042V   26093.23257369  .00350380  00000+0  21940-2 0  9997
2 68088  53.1596  71.8572 0001400  48.8880 311.2261 15.75264701  5966
STARLINK-37004          
1 68089U 26042W   26093.55436691  .00304394  00000+0  19173-2 0  9999
2 68089  53.1589  70.3096 0002767  43.1565 316.9672 15.75261165  6015
STARLINK-36320          
1 68090U 26042X   26093.58336806  .00138490  00000+0  89574-3 0  9996
2 68090  53.1587  70.4315 0000772 125.4535 270.4634 15.75165477  6049
STARLINK-36324          
1 68091U 26042Y   26093.20122450  .00167235  00000+0  10712-2 0  9990
2 68091  53.1596  72.3876 0001344 117.0631 243.0527 15.75291385  5957
STARLINK-36896          
1 68092U 26042Z   26093.19182013  .00390392  00000+0  24345-2 0  9999
2 68092  53.1590  72.3239 0001504 138.7053 221.4082 15.75245068  5943
