CCSDS_OMM_VERS = 2.0
CREATION_DATE  = 
ORIGINATOR     = 

OBJECT_NAME    = STARLINK-37066
OBJECT_ID      = 2026-042N
CENTER_NAME    = EARTH
REF_FRAME      = TEME
TIME_SYSTEM    = UTC
MEAN_ELEMENT_THEORY = SGP/SGP4

EPOCH          = 2026-04-03T04:49:17.414400
MEAN_MOTION    = 15.75271319
ECCENTRICITY   = .00011136
INCLINATION    = 53.1596
RA_OF_ASC_NODE = 72.3855
ARG_OF_PERICENTER = 53.7875
MEAN_ANOMALY   = 306.3248

EPHEMERIS_TYPE = 0
CLASSIFICATION_TYPE = U
NORAD_CAT_ID   = 68081
ELEMENT_SET_NO = 999
REV_AT_EPOCH   = 595
BSTAR          = .65687087E-3
MEAN_MOTION_DOT = .101408E-2
MEAN_MOTION_DDOT = 0

CCSDS_OMM_VERS = 2.0
CREATION_DATE  = 
ORIGINATOR     = 

OBJECT_NAME    = STARLINK-37054
OBJECT_ID      = 2026-042P
CENTER_NAME    = EARTH
REF_FRAME      = TEME
TIME_SYSTEM    = UTC
MEAN_ELEMENT_THEORY = SGP/SGP4

EPOCH          = 2026-04-03T14:00:03.000384
MEAN_MOTION    = 15.75198650
ECCENTRICITY   = .00011078
INCLINATION    = 53.1597
RA_OF_ASC_NODE = 69.9567
ARG_OF_PERICENTER = 106.3972
MEAN_ANOMALY   = 161.3486

EPHEMERIS_TYPE = 0
CLASSIFICATION_TYPE = U
NORAD_CAT_ID   = 68082
ELEMENT_SET_NO = 999
REV_AT_EPOCH   = 605
BSTAR          = .39069599E-3
MEAN_MOTION_DOT = .59566E-3
MEAN_MOTION_DDOT = 0

CCSDS_OMM_VERS = 2.0
CREATION_DATE  = 
ORIGINATOR     = 

OBJECT_NAME    = STARLINK-37065
OBJECT_ID      = 2026-042Q
CENTER_NAME    = EARTH
REF_FRAME      = TEME
TIME_SYSTEM    = UTC
MEAN_ELEMENT_THEORY = SGP/SGP4

EPOCH          = 2026-04-03T04:55:49.753344
MEAN_MOTION    = 15.75257468
ECCENTRICITY   = .00013972
INCLINATION    = 53.1591
RA_OF_ASC_NODE = 72.4150
ARG_OF_PERICENTER = 115.5889
MEAN_ANOMALY   = 244.5276

EPHEMERIS_TYPE = 0
CLASSIFICATION_TYPE = U
NORAD_CAT_ID   = 68083
ELEMENT_SET_NO = 999
REV_AT_EPOCH   = 595
BSTAR          = .29406711E-2
MEAN_MOTION_DOT = .476885E-2
MEAN_MOTION_DDOT = 0

CCSDS_OMM_VERS = 2.0
CREATION_DATE  = 
ORIGINATOR     = 

OBJECT_NAME    = STARLINK-37037
OBJECT_ID      = 2026-042R
CENTER_NAME    = EARTH
REF_FRAME      = TEME
TIME_SYSTEM    = UTC
MEAN_ELEMENT_THEORY = SGP/SGP4

EPOCH          = 2026-04-03T15:09:15.481152
MEAN_MOTION    = 15.75352224
ECCENTRICITY   = .000156
INCLINATION    = 53.1582
RA_OF_ASC_NODE = 70.0871
ARG_OF_PERICENTER = 62.5545
MEAN_ANOMALY   = 297.5634

EPHEMERIS_TYPE = 0
CLASSIFICATION_TYPE = U
NORAD_CAT_ID   = 68084
ELEMENT_SET_NO = 999
REV_AT_EPOCH   = 602
BSTAR          = .28064008E-2
MEAN_MOTION_DOT = .455799E-2
MEAN_MOTION_DDOT = 0

CCSDS_OMM_VERS = 2.0
CREATION_DATE  = 
ORIGINATOR     = 

OBJECT_NAME    = STARLINK-37068
OBJECT_ID      = 2026-042S
CENTER_NAME    = EARTH
REF_FRAME      = TEME
TIME_SYSTEM    = UTC
MEAN_ELEMENT_THEORY = SGP/SGP4

EPOCH          = 2026-04-03T08:44:39.225696
MEAN_MOTION    = 15.75248196
ECCENTRICITY   = .0001504
INCLINATION    = 53.1592
RA_OF_ASC_NODE = 71.2590
ARG_OF_PERICENTER = 64.0072
MEAN_ANOMALY   = 296.1103

EPHEMERIS_TYPE = 0
CLASSIFICATION_TYPE = U
NORAD_CAT_ID   = 68085
ELEMENT_SET_NO = 999
REV_AT_EPOCH   = 598
BSTAR          = .11995305E-2
MEAN_MOTION_DOT = .18744E-2
MEAN_MOTION_DDOT = 0

CCSDS_OMM_VERS = 2.0
CREATION_DATE  = 
ORIGINATOR     = 

OBJECT_NAME    = STARLINK-37067
OBJECT_ID      = 2026-042T
CENTER_NAME    = EARTH
REF_FRAME      = TEME
TIME_SYSTEM    = UTC
MEAN_ELEMENT_THEORY = SGP/SGP4

EPOCH          = 2026-04-03T14:00:03.000384
MEAN_MOTION    = 15.75140886
ECCENTRICITY   = .00008595
INCLINATION    = 53.1597
RA_OF_ASC_NODE = 69.9604
ARG_OF_PERICENTER = 94.8675
MEAN_ANOMALY   = 170.9799

EPHEMERIS_TYPE = 0
CLASSIFICATION_TYPE = U
NORAD_CAT_ID   = 68086
ELEMENT_SET_NO = 999
REV_AT_EPOCH   = 605
BSTAR          = .99412541E-3
MEAN_MOTION_DOT = .153888E-2
MEAN_MOTION_DDOT = 0

CCSDS_OMM_VERS = 2.0
CREATION_DATE  = 
ORIGINATOR     = 

OBJECT_NAME    = STARLINK-37062
OBJECT_ID      = 2026-042U
CENTER_NAME    = EARTH
REF_FRAME      = TEME
TIME_SYSTEM    = UTC
MEAN_ELEMENT_THEORY = SGP/SGP4

EPOCH          = 2026-04-03T14:00:03.000384
MEAN_MOTION    = 15.75162071
ECCENTRICITY   = .00008481
INCLINATION    = 53.1594
RA_OF_ASC_NODE = 70.0097
ARG_OF_PERICENTER = 79.0061
MEAN_ANOMALY   = 162.9472

EPHEMERIS_TYPE = 0
CLASSIFICATION_TYPE = U
NORAD_CAT_ID   = 68087
ELEMENT_SET_NO = 999
REV_AT_EPOCH   = 605
BSTAR          = .88958154E-3
MEAN_MOTION_DOT = .137496E-2
MEAN_MOTION_DDOT = 0

CCSDS_OMM_VERS = 2.0
CREATION_DATE  = 
ORIGINATOR     = 

OBJECT_NAME    = STARLINK-37059
OBJECT_ID      = 2026-042V
CENTER_NAME    = EARTH
REF_FRAME      = TEME
TIME_SYSTEM    = UTC
MEAN_ELEMENT_THEORY = SGP/SGP4

EPOCH          = 2026-04-03T05:34:54.366816
MEAN_MOTION    = 15.75264701
ECCENTRICITY   = .00014
INCLINATION    = 53.1596
RA_OF_ASC_NODE = 71.8572
ARG_OF_PERICENTER = 48.8880
MEAN_ANOMALY   = 311.2261

EPHEMERIS_TYPE = 0
CLASSIFICATION_TYPE = U
NORAD_CAT_ID   = 68088
ELEMENT_SET_NO = 999
REV_AT_EPOCH   = 596
BSTAR          = .2194E-2
MEAN_MOTION_DOT = .35038E-2
MEAN_MOTION_DDOT = 0

CCSDS_OMM_VERS = 2.0
CREATION_DATE  = 
ORIGINATOR     = 

OBJECT_NAME    = STARLINK-37004
OBJECT_ID      = 2026-042W
CENTER_NAME    = EARTH
REF_FRAME      = TEME
TIME_SYSTEM    = UTC
MEAN_ELEMENT_THEORY = SGP/SGP4

EPOCH          = 2026-04-03T13:18:17.301024
MEAN_MOTION    = 15.75261165
ECCENTRICITY   = .00027672
INCLINATION    = 53.1589
RA_OF_ASC_NODE = 70.3096
ARG_OF_PERICENTER = 43.1565
MEAN_ANOMALY   = 316.9672

EPHEMERIS_TYPE = 0
CLASSIFICATION_TYPE = U
NORAD_CAT_ID   = 68089
ELEMENT_SET_NO = 999
REV_AT_EPOCH   = 601
BSTAR          = .19173442E-2
MEAN_MOTION_DOT = .304394E-2
MEAN_MOTION_DDOT = 0

CCSDS_OMM_VERS = 2.0
CREATION_DATE  = 
ORIGINATOR     = 

OBJECT_NAME    = STARLINK-36320
OBJECT_ID      = 2026-042X
CENTER_NAME    = EARTH
REF_FRAME      = TEME
TIME_SYSTEM    = UTC
MEAN_ELEMENT_THEORY = SGP/SGP4

EPOCH          = 2026-04-03T14:00:03.000384
MEAN_MOTION    = 15.75165477
ECCENTRICITY   = .0000772
INCLINATION    = 53.1587
RA_OF_ASC_NODE = 70.4315
ARG_OF_PERICENTER = 125.4535
MEAN_ANOMALY   = 270.4634

EPHEMERIS_TYPE = 0
CLASSIFICATION_TYPE = U
NORAD_CAT_ID   = 68090
ELEMENT_SET_NO = 999
REV_AT_EPOCH   = 604
BSTAR          = .89574429E-3
MEAN_MOTION_DOT = .13849E-2
MEAN_MOTION_DDOT = 0

CCSDS_OMM_VERS = 2.0
CREATION_DATE  = 
ORIGINATOR     = 

OBJECT_NAME    = STARLINK-36324
OBJECT_ID      = 2026-042Y
CENTER_NAME    = EARTH
REF_FRAME      = TEME
TIME_SYSTEM    = UTC
MEAN_ELEMENT_THEORY = SGP/SGP4

EPOCH          = 2026-04-03T04:49:45.796800
MEAN_MOTION    = 15.75291385
ECCENTRICITY   = .00013442
INCLINATION    = 53.1596
RA_OF_ASC_NODE = 72.3876
ARG_OF_PERICENTER = 117.0631
MEAN_ANOMALY   = 243.0527

EPHEMERIS_TYPE = 0
CLASSIFICATION_TYPE = U
NORAD_CAT_ID   = 68091
ELEMENT_SET_NO = 999
REV_AT_EPOCH   = 595
BSTAR          = .10712346E-2
MEAN_MOTION_DOT = .167235E-2
MEAN_MOTION_DDOT = 0

CCSDS_OMM_VERS = 2.0
CREATION_DATE  = 
ORIGINATOR     = 

OBJECT_NAME    = STARLINK-36896
OBJECT_ID      = 2026-042Z
CENTER_NAME    = EARTH
REF_FRAME      = TEME
TIME_SYSTEM    = UTC
MEAN_ELEMENT_THEORY = SGP/SGP4

EPOCH          = 2026-04-03T04:36:13.259232
MEAN_MOTION    = 15.75245068
ECCENTRICITY   = .00015048
INCLINATION    = 53.1590
RA_OF_ASC_NODE = 72.3239
ARG_OF_PERICENTER = 138.7053
MEAN_ANOMALY   = 221.4082

EPHEMERIS_TYPE = 0
CLASSIFICATION_TYPE = U
NORAD_CAT_ID   = 68092
ELEMENT_SET_NO = 999
REV_AT_EPOCH   = 594
BSTAR          = .24345066E-2
MEAN_MOTION_DOT = .390392E-2
MEAN_MOTION_DDOT = 0

